[{"OBJECT_NAME":"ICESAT-2","OBJECT_ID":"2018-070A","EPOCH":"2026-03-09T22:54:12.225888","MEAN_MOTION":15.28328617,"ECCENTRICITY":0.00038245,"INCLINATION":91.9993,"RA_OF_ASC_NODE":264.2397,"ARG_OF_PERICENTER":123.8941,"MEAN_ANOMALY":236.2673,"EPHEMERIS_TYPE":0,"CLASSIFICATION_TYPE":"U","NORAD_CAT_ID":43613,"ELEMENT_SET_NO":999,"REV_AT_EPOCH":41730,"BSTAR":0.00014022643,"MEAN_MOTION_DOT":3.87e-5,"MEAN_MOTION_DDOT":0},{"OBJECT_NAME":"STARLINK-36108","OBJECT_ID":"2025-281W","EPOCH":"2026-03-09T04:14:59.957376","MEAN_MOTION":15.27589441,"ECCENTRICITY":0.00021492,"INCLINATION":42.9977,"RA_OF_ASC_NODE":346.6724,"ARG_OF_PERICENTER":260.482,"MEAN_ANOMALY":99.5789,"EPHEMERIS_TYPE":0,"CLASSIFICATION_TYPE":"U","NORAD_CAT_ID":66868,"ELEMENT_SET_NO":999,"REV_AT_EPOCH":1609,"BSTAR":0.0011275723,"MEAN_MOTION_DOT":0.00030906,"MEAN_MOTION_DDOT":0}]
